STARLINK-3734
1 52112U 22029AA  26090.31575172 -.00090722  00000+0 -50431-2 0  9990
2 52112  53.2167 341.6803 0001213  99.1378 260.9754 15.13591716224051
